[{"OBJECT_NAME":"ASRTU-1 (AO-123)","OBJECT_ID":"2024-199AY","EPOCH":"2026-03-09T22:36:42.151392","MEAN_MOTION":15.34070057,"ECCENTRICITY":0.0012786,"INCLINATION":97.3152,"RA_OF_ASC_NODE":298.5256,"ARG_OF_PERICENTER":309.3392,"MEAN_ANOMALY":50.6717,"EPHEMERIS_TYPE":0,"CLASSIFICATION_TYPE":"U","NORAD_CAT_ID":61781,"ELEMENT_SET_NO":999,"REV_AT_EPOCH":11870,"BSTAR":0.00032267684,"MEAN_MOTION_DOT":0.00010589,"MEAN_MOTION_DDOT":0},{"OBJECT_NAME":"STARLINK-34318","OBJECT_ID":"2025-117V","EPOCH":"2026-03-09T05:27:06.724224","MEAN_MOTION":15.30199776,"ECCENTRICITY":0.0001077,"INCLINATION":53.1604,"RA_OF_ASC_NODE":41.8395,"ARG_OF_PERICENTER":80.9385,"MEAN_ANOMALY":279.1738,"EPHEMERIS_TYPE":0,"CLASSIFICATION_TYPE":"U","NORAD_CAT_ID":64222,"ELEMENT_SET_NO":999,"REV_AT_EPOCH":4445,"BSTAR":0.0011220733,"MEAN_MOTION_DOT":0.00033021,"MEAN_MOTION_DDOT":0}]
